[
    {
        "Altitude(m)": 604969.0891072539,
        "Argument of Periapsis(deg)": 0.0,
        "Eccentricity": 0.0,
        "Inclination(deg)": 60.0,
        "Latitude(deg)": -0.09263642262543478,
        "Longitude(deg)": -175.02247254706614,
        "Mean Anomaly(deg)": 0.0,
        "RAAN(deg)": 285.0,
        "Satellite Name": "Test1 1254",
        "Satellite Number": 1254,
        "Semi-Major Axis(m)": 6980739.136638005,
        "Time(s)": 0
    },
    {
        "Altitude(m)": 604900.0287707669,
        "Argument of Periapsis(deg)": 0.00010418945913296404,
        "Eccentricity": 0.0,
        "Inclination(deg)": 60.0,
        "Latitude(deg)": 0.4477890269800609,
        "Longitude(deg)": -174.75434863019973,
        "Mean Anomaly(deg)": 0.620106145461853,
        "RAAN(deg)": 284.9995799508602,
        "Satellite Name": "Test1 1254",
        "Satellite Number": 1254,
        "Semi-Major Axis(m)": 6980739.136638005,
        "Time(s)": 10
    }
]